{"type": "FeatureCollection", "features": [ {"type": "Feature", "properties": {"norad_id": 30146, "name": "FENGYUN 1C DEB", "group": "fengyun-1c-debris", "lat": -24.12246292441981, "lon": -31.56210974250717, "alt_km": 965.8863869498264, "timestamp": "2025-12-19T08:58:49.612493+00:00", "meta": {"OBJECT_NAME": "FENGYUN 1C DEB", "OBJECT_ID": "1999-025TB", "EPOCH": "2025-12-18T09:49:55.037856", "MEAN_MOTION": 13.86608964, "ECCENTRICITY": 0.01787564, "INCLINATION": 98.0201, "RA_OF_ASC_NODE": 151.2297, "ARG_OF_PERICENTER": 107.1856, "MEAN_ANOMALY": 323.0505, "EPHEMERIS_TYPE": 0, "CLASSIFICATION_TYPE": "U", "NORAD_CAT_ID": 30146, "ELEMENT_SET_NO": 999, "REV_AT_EPOCH": 95496, "BSTAR": 0.00048964765, "MEAN_MOTION_DOT": 6.12e-06, "MEAN_MOTION_DDOT": 0}, "tle": {"line1": "1 30146U 99025TB  25352.40966479  .00000612  00000+0  48965-3 0  9994", "line2": "2 30146  98.0201 151.2297 0178756 107.1856 323.0505 13.86608964954967"}}, "geometry": {"type": "Point", "coordinates": [-31.56210974250717, -24.12246292441981]}}, {"type": "Feature", "properties": {"norad_id": 30148, "name": "FENGYUN 1C DEB", "group": "fengyun-1c-debris", "lat": -79.25854398939119, "lon": -154.66833742966983, "alt_km": 949.9898623981071, "timestamp": "2025-12-19T08:58:49.612503+00:00", "meta": {"OBJECT_NAME": "FENGYUN 1C DEB", "OBJECT_ID": "1999-025TD", "EPOCH": "2025-12-18T23:37:01.913952", "MEAN_MOTION": 13.88500921, "ECCENTRICITY": 0.01350337, "INCLINATION": 99.5454, "RA_OF_ASC_NODE": 142.4364, "ARG_OF_PERICENTER": 180.1, "MEAN_ANOMALY": 304.2145, "EPHEMERIS_TYPE": 0, "CLASSIFICATION_TYPE": "U", "NORAD_CAT_ID": 30148, "ELEMENT_SET_NO": 999, "REV_AT_EPOCH": 95603, "BSTAR": 0.00062413896, "MEAN_MOTION_DOT": 7.6e-06, "MEAN_MOTION_DDOT": 0}, "tle": {"line1": "1 30148U 99025TD  25352.98404993  .00000760  00000+0  62414-3 0  9996", "line2": "2 30148  99.5454 142.4364 0135033 180.1000 304.2145 13.88500921956032"}}, "geometry": {"type": "Point", "coordinates": [-154.66833742966983, -79.25854398939119]}}, {"type": "Feature", "properties": {"norad_id": 30150, "name": "FENGYUN 1C DEB", "group": "fengyun-1c-debris", "lat": 5.7813254957935705, "lon": 128.1939777775981, "alt_km": 869.8391413136023, "timestamp": "2025-12-19T08:58:49.612513+00:00", "meta": {"OBJECT_NAME": "FENGYUN 1C DEB", "OBJECT_ID": "1999-025TF", "EPOCH": "2025-12-17T21:13:21.176832", "MEAN_MOTION": 13.86600499, "ECCENTRICITY": 0.01463977, "INCLINATION": 98.9947, "RA_OF_ASC_NODE": 127.6802, "ARG_OF_PERICENTER": 322.1664, "MEAN_ANOMALY": 169.302, "EPHEMERIS_TYPE": 0, "CLASSIFICATION_TYPE": "U", "NORAD_CAT_ID": 30150, "ELEMENT_SET_NO": 999, "REV_AT_EPOCH": 95529, "BSTAR": 0.00045822707, "MEAN_MOTION_DOT": 5.36e-06, "MEAN_MOTION_DDOT": 0}, "tle": {"line1": "1 30150U 99025TF  25351.88427288  .00000536  00000+0  45823-3 0  9995", "line2": "2 30150  98.9947 127.6802 0146397 322.1664 169.3020 13.86600499955294"}}, "geometry": {"type": "Point", "coordinates": [128.1939777775981, 5.7813254957935705]}}, {"type": "Feature", "properties": {"norad_id": 30151, "name": "FENGYUN 1C DEB", "group": "fengyun-1c-debris", "lat": 63.338846232232825, "lon": -160.34242743705622, "alt_km": 1040.0119711630114, "timestamp": "2025-12-19T08:58:49.612523+00:00", "meta": {"OBJECT_NAME": "FENGYUN 1C DEB", "OBJECT_ID": "1999-025TG", "EPOCH": "2025-12-18T12:13:12.642240", "MEAN_MOTION": 13.84480992, "ECCENTRICITY": 0.01632045, "INCLINATION": 99.0631, "RA_OF_ASC_NODE": 0.2871, "ARG_OF_PERICENTER": 263.1959, "MEAN_ANOMALY": 223.9951, "EPHEMERIS_TYPE": 0, "CLASSIFICATION_TYPE": "U", "NORAD_CAT_ID": 30151, "ELEMENT_SET_NO": 999, "REV_AT_EPOCH": 95325, "BSTAR": 0.00050277847, "MEAN_MOTION_DOT": 5.81e-06, "MEAN_MOTION_DDOT": 0}, "tle": {"line1": "1 30151U 99025TG  25352.50917410  .00000581  00000+0  50278-3 0  9997", "line2": "2 30151  99.0631   0.2871 0163204 263.1959 223.9951 13.84480992953252"}}, "geometry": {"type": "Point", "coordinates": [-160.34242743705622, 63.338846232232825]}}, {"type": "Feature", "properties": {"norad_id": 30152, "name": "FENGYUN 1C DEB", "group": "fengyun-1c-debris", "lat": 7.480408718293395, "lon": 32.245436404572835, "alt_km": 936.2476923043632, "timestamp": "2025-12-19T08:58:49.612533+00:00", "meta": {"OBJECT_NAME": "FENGYUN 1C DEB", "OBJECT_ID": "1999-025TH", "EPOCH": "2025-12-18T13:15:48.289536", "MEAN_MOTION": 13.96729812, "ECCENTRICITY": 0.01623853, "INCLINATION": 99.0798, "RA_OF_ASC_NODE": 210.2312, "ARG_OF_PERICENTER": 69.3318, "MEAN_ANOMALY": 292.5171, "EPHEMERIS_TYPE": 0, "CLASSIFICATION_TYPE": "U", "NORAD_CAT_ID": 30152, "ELEMENT_SET_NO": 999, "REV_AT_EPOCH": 95459, "BSTAR": 0.0021273437, "MEAN_MOTION_DOT": 3.258e-05, "MEAN_MOTION_DDOT": 0}, "tle": {"line1": "1 30152U 99025TH  25352.55264224  .00003258  00000+0  21273-2 0  9997", "line2": "2 30152  99.0798 210.2312 0162385  69.3318 292.5171 13.96729812954598"}}, "geometry": {"type": "Point", "coordinates": [32.245436404572835, 7.480408718293395]}}, {"type": "Feature", "properties": {"norad_id": 30153, "name": "FENGYUN 1C DEB", "group": "fengyun-1c-debris", "lat": 74.4525571986962, "lon": -153.9177510794477, "alt_km": 1015.4355842308896, "timestamp": "2025-12-19T08:58:49.612543+00:00", "meta": {"OBJECT_NAME": "FENGYUN 1C DEB", "OBJECT_ID": "1999-025TJ", "EPOCH": "2025-12-18T22:20:30.879744", "MEAN_MOTION": 13.78787226, "ECCENTRICITY": 0.02006398, "INCLINATION": 100.467, "RA_OF_ASC_NODE": 343.9543, "ARG_OF_PERICENTER": 349.9256, "MEAN_ANOMALY": 70.3593, "EPHEMERIS_TYPE": 0, "CLASSIFICATION_TYPE": "U", "NORAD_CAT_ID": 30153, "ELEMENT_SET_NO": 999, "REV_AT_EPOCH": 94860, "BSTAR": 0.0010003767, "MEAN_MOTION_DOT": 1.129e-05, "MEAN_MOTION_DDOT": 0}, "tle": {"line1": "1 30153U 99025TJ  25352.93091296  .00001129  00000+0  10004-2 0  9992", "line2": "2 30153 100.4670 343.9543 0200639 349.9256  70.3593 13.78787226948606"}}, "geometry": {"type": "Point", "coordinates": [-153.9177510794477, 74.4525571986962]}}, {"type": "Feature", "properties": {"norad_id": 30154, "name": "FENGYUN 1C DEB", "group": "fengyun-1c-debris", "lat": 20.251443807502525, "lon": -142.33804339713126, "alt_km": 817.3873018080913, "timestamp": "2025-12-19T08:58:49.612553+00:00", "meta": {"OBJECT_NAME": "FENGYUN 1C DEB", "OBJECT_ID": "1999-025TK", "EPOCH": "2025-12-18T01:10:08.583744", "MEAN_MOTION": 13.86008761, "ECCENTRICITY": 0.01829924, "INCLINATION": 98.4493, "RA_OF_ASC_NODE": 33.3214, "ARG_OF_PERICENTER": 184.316, "MEAN_ANOMALY": 205.8411, "EPHEMERIS_TYPE": 0, "CLASSIFICATION_TYPE": "U", "NORAD_CAT_ID": 30154, "ELEMENT_SET_NO": 999, "REV_AT_EPOCH": 95058, "BSTAR": 0.001303302, "MEAN_MOTION_DOT": 1.672e-05, "MEAN_MOTION_DDOT": 0}, "tle": {"line1": "1 30154U 99025TK  25352.04871046  .00001672  00000+0  13033-2 0  9992", "line2": "2 30154  98.4493  33.3214 0182992 184.3160 205.8411 13.86008761950580"}}, "geometry": {"type": "Point", "coordinates": [-142.33804339713126, 20.251443807502525]}}, {"type": "Feature", "properties": {"norad_id": 30155, "name": "FENGYUN 1C DEB", "group": "fengyun-1c-debris", "lat": 80.1586101073, "lon": -30.527532883948208, "alt_km": 1077.1278298414145, "timestamp": "2025-12-19T08:58:49.612563+00:00", "meta": {"OBJECT_NAME": "FENGYUN 1C DEB", "OBJECT_ID": "1999-025TL", "EPOCH": "2025-12-18T20:18:24.862176", "MEAN_MOTION": 13.7382634, "ECCENTRICITY": 0.0242138, "INCLINATION": 99.7516, "RA_OF_ASC_NODE": 66.4964, "ARG_OF_PERICENTER": 327.8903, "MEAN_ANOMALY": 30.7688, "EPHEMERIS_TYPE": 0, "CLASSIFICATION_TYPE": "U", "NORAD_CAT_ID": 30155, "ELEMENT_SET_NO": 999, "REV_AT_EPOCH": 93948, "BSTAR": 0.0016610955, "MEAN_MOTION_DOT": 1.873e-05, "MEAN_MOTION_DDOT": 0}, "tle": {"line1": "1 30155U 99025TL  25352.84612109  .00001873  00000+0  16611-2 0  9992", "line2": "2 30155  99.7516  66.4964 0242138 327.8903  30.7688 13.73826340939482"}}, "geometry": {"type": "Point", "coordinates": [-30.527532883948208, 80.1586101073]}}, {"type": "Feature", "properties": {"norad_id": 30156, "name": "FENGYUN 1C DEB", "group": "fengyun-1c-debris", "lat": 32.19309482651748, "lon": 145.6808356342425, "alt_km": 975.8157150189109, "timestamp": "2025-12-19T08:58:49.612573+00:00", "meta": {"OBJECT_NAME": "FENGYUN 1C DEB", "OBJECT_ID": "1999-025TM", "EPOCH": "2025-12-18T20:23:33.069120", "MEAN_MOTION": 13.80829866, "ECCENTRICITY": 0.01989092, "INCLINATION": 98.9192, "RA_OF_ASC_NODE": 319.5116, "ARG_OF_PERICENTER": 246.439, "MEAN_ANOMALY": 177.234, "EPHEMERIS_TYPE": 0, "CLASSIFICATION_TYPE": "U", "NORAD_CAT_ID": 30156, "ELEMENT_SET_NO": 999, "REV_AT_EPOCH": 94775, "BSTAR": 0.00087658256, "MEAN_MOTION_DOT": 1.03e-05, "MEAN_MOTION_DDOT": 0}, "tle": {"line1": "1 30156U 99025TM  25352.84968830  .00001030  00000+0  87658-3 0  9993", "line2": "2 30156  98.9192 319.5116 0198909 246.4390 177.2340 13.80829866947752"}}, "geometry": {"type": "Point", "coordinates": [145.6808356342425, 32.19309482651748]}}, {"type": "Feature", "properties": {"norad_id": 30157, "name": "FENGYUN 1C DEB", "group": "fengyun-1c-debris", "lat": 18.691999186118075, "lon": -86.4418092327249, "alt_km": 715.8334351405956, "timestamp": "2025-12-19T08:58:49.612583+00:00", "meta": {"OBJECT_NAME": "FENGYUN 1C DEB", "OBJECT_ID": "1999-025TN", "EPOCH": "2025-12-18T05:54:22.891392", "MEAN_MOTION": 14.45176122, "ECCENTRICITY": 0.00371397, "INCLINATION": 98.7167, "RA_OF_ASC_NODE": 89.4254, "ARG_OF_PERICENTER": 177.0451, "MEAN_ANOMALY": 238.3523, "EPHEMERIS_TYPE": 0, "CLASSIFICATION_TYPE": "U", "NORAD_CAT_ID": 30157, "ELEMENT_SET_NO": 999, "REV_AT_EPOCH": 98152, "BSTAR": 0.0017628744, "MEAN_MOTION_DOT": 6.184e-05, "MEAN_MOTION_DDOT": 0}, "tle": {"line1": "1 30157U 99025TN  25352.24609828  .00006184  00000+0  17629-2 0  9992", "line2": "2 30157  98.7167  89.4254 0037139 177.0451 238.3523 14.45176122981520"}}, "geometry": {"type": "Point", "coordinates": [-86.4418092327249, 18.691999186118075]}}]}